{"type":"FeatureCollection","name":"simplified_land_outline","features":[{"type":"Feature","properties":{"name":"Australia"},"geometry":{"type":"Polygon","coordinates":[[[142.5,-10.7],[143.6,-14.5],[145.3,-15],[145.9,-16.9],[146.3,-18.3],[146.9,-19.3],[148.2,-19.9],[149.2,-21.1],[149.7,-22.4],[150.8,-22.7],[151.2,-23.5],[151.1,-23.85],[151.35,-24],[151.9,-24.6],[152.5,-25.3],[153.15,-25.9],[153.1,-26.8],[153.45,-27.5],[153.6,-28.7],[153,-30.5],[152,-32.6],[151.2,-33.9],[150.6,-35.3],[150,-37.4],[147.9,-37.9],[146.4,-39.1],[145.4,-38.3],[144.9,-38.4],[144.9,-37.9],[144.5,-38.3],[143.5,-38.8],[141,-38.3],[139.7,-37.2],[139.5,-36],[138.5,-35.6],[138.5,-34.6],[138.1,-34.3],[137.9,-35.1],[137.8,-33.4],[137,-33.7],[136,-34.9],[135.5,-34.6],[134.2,-32.7],[131.1,-31.5],[127,-32.3],[123.5,-33.9],[121,-33.9],[118,-35],[115,-34.4],[115.7,-33.2],[115.7,-32],[114.9,-30],[114.1,-28],[113.4,-26.1],[113.8,-23.4],[114.1,-21.8],[115.5,-21],[116.7,-20.6],[119,-20],[121,-19.5],[122.2,-18],[123,-16.4],[124.5,-16.4],[125.2,-14.5],[126.9,-13.8],[128.2,-15.2],[129.5,-14.9],[129.8,-13.5],[130.3,-12.5],[131.9,-12.2],[132.6,-11.4],[135.2,-12.1],[136.8,-12.2],[135.9,-13.2],[135.7,-14.9],[136.8,-15.9],[139,-17.6],[140.8,-17.5],[141.4,-16.2],[141.6,-12.9],[142.1,-11.1],[142.5,-10.7]]]}},{"type":"Feature","properties":{"name":"Tasmania"},"geometry":{"type":"Polygon","coordinates":[[[144.7,-40.7],[147,-40.8],[148.3,-40.9],[148.3,-42.2],[147.9,-43.2],[147,-43.6],[145.9,-43.6],[145.2,-42.2],[144.7,-41.2],[144.7,-40.7]]]}},{"type":"Feature","properties":{"name":"New Guinea"},"geometry":{"type":"Polygon","coordinates":[[[131.2,-1.4],[134.2,-2.5],[136.5,-1.8],[140,-2.4],[143.5,-3.6],[145.8,-4.9],[147.5,-5.9],[148.8,-8],[150.6,-10.4],[147.2,-8.1],[144.5,-7.7],[143,-8.5],[141,-8.1],[138.9,-8.2],[138.5,-6.5],[135.3,-4.5],[133.5,-3.9],[132.4,-4.1],[131.9,-2.7],[131.2,-1.4]]]}},{"type":"Feature","properties":{"name":"New Zealand"},"geometry":{"type":"MultiPolygon","coordinates":[[[[172.8,-34.4],[174.3,-35.3],[175.4,-36.5],[176,-37.6],[178,-37.5],[178.5,-38.6],[177,-39.5],[176.9,-40.2],[175.3,-41.6],[174.6,-39.3],[174.8,-38],[173,-35.5],[172.8,-34.4]]],[[[172.7,-40.5],[174.3,-41],[174.2,-41.7],[173.1,-42.9],[172.7,-43.6],[171.2,-44.3],[170.7,-45.9],[168.4,-46.6],[166.5,-46],[168.4,-44],[170.6,-42.9],[172.1,-41],[172.7,-40.5]]]]}},{"type":"Feature","properties":{"name":"Maritime SE Asia"},"geometry":{"type":"MultiPolygon","coordinates":[[[[95.3,5.6],[98.3,3.7],[100.4,1.7],[103,0.5],[104.4,-1.5],[106,-3],[105.8,-5.9],[104.5,-5.5],[102,-4],[100.3,-1],[98.6,1.7],[96,3.7],[95.3,5.6]]],[[[105.2,-6.8],[107,-6.2],[110.4,-6.5],[112.7,-6.9],[114.4,-7.7],[114.6,-8.7],[111.5,-8.3],[108,-7.8],[105.6,-7.5],[105.2,-6.8]]],[[[109.6,1.9],[111.4,2.9],[113,4.6],[115.2,5.6],[117.6,6.9],[119.2,5.3],[117.6,3.6],[117.5,0.3],[116.5,-2.5],[114.5,-3.5],[110.2,-3],[109,-0.9],[108.9,0.9],[109.6,1.9]]],[[[119.5,0.8],[120.5,1.3],[123.9,0.8],[121.5,-0.9],[123.2,-2],[122.3,-4.5],[120.4,-5.6],[119.4,-5.6],[119.5,-3.5],[118.8,-2.7],[119.8,-0.7],[119.5,0.8]]],[[[120.3,18.6],[122.2,17],[124,13],[123,9],[126.6,7.2],[125.5,5.6],[122,6.9],[121.9,10.5],[120,14],[119.8,16.3],[120.3,18.6]]]]}},{"type":"Feature","properties":{"name":"Africa"},"geometry":{"type":"Polygon","coordinates":[[[-5.9,35.8],[3,36.9],[10.2,37.2],[15.3,32.4],[20.1,32.2],[25,31.6],[31.1,31.5],[34.2,27.8],[37.5,18.7],[43.4,12.5],[45,10.9],[51.4,11.8],[47.5,4.6],[41,-1.9],[40.5,-10.5],[40.5,-15.5],[35,-20],[35.5,-24],[32.6,-28.8],[27.9,-33],[20,-34.8],[18.3,-33.9],[17.1,-29.5],[14.5,-22.5],[11.8,-18],[13.4,-12.5],[12.3,-6.1],[9.7,-1.6],[9.3,3.9],[5.9,4.3],[1.2,6.1],[-4,5.2],[-7.6,4.4],[-13.3,8.5],[-17.4,14.7],[-16.5,19.5],[-14.8,23.5],[-13,27.7],[-9.6,30.4],[-9.8,33.9],[-5.9,35.8]]]}},{"type":"Feature","properties":{"name":"Eurasia"},"geometry":{"type":"Polygon","coordinates":[[[-9.3,38.7],[-8.9,43.3],[-4.8,43.4],[-1.2,46.2],[-4.6,48.4],[1.4,50.9],[4,52],[8,53.6],[8.6,56.2],[10.6,59.5],[5.5,60.5],[12,65.2],[18,69.5],[25.8,71.1],[31,69.9],[40.4,67.8],[44.2,66.7],[54,68.5],[66,69],[73.5,71.5],[80,73],[95,76.1],[105,77.5],[113,73.8],[125,73],[140,72.2],[151,70.9],[160,69.7],[170,69.8],[178.5,65.5],[174,61.7],[165,60.1],[162.5,56.5],[156.7,50.9],[155.5,56.5],[152.5,59],[143,53.5],[138.5,48],[131.9,43.1],[129.6,40.1],[129.5,35.5],[126.5,34.4],[126.6,37.7],[124.2,39.8],[121.5,38.9],[117.7,38.7],[120.3,34.3],[121.8,31.2],[120,26.5],[116.5,23.3],[113.5,22.2],[110,21.4],[105.9,20],[109,15.5],[108,10.9],[104.8,8.6],[100.5,13.6],[102,11.5],[103.5,1.4],[100.5,5.5],[98.3,8.4],[97.6,16],[94.5,17.8],[91.5,22.5],[88,21.7],[86,20.2],[80.3,15.8],[80.3,13.1],[79.9,10.3],[77.5,8.1],[74.9,12.9],[72.8,19],[72.6,22.3],[69,22.2],[66.9,24.8],[61.6,25.2],[57,25.6],[51.6,24.2],[48.6,28.6],[50,26.5],[51.5,25.3],[52.6,24],[56.4,26.2],[58.8,23.6],[59.8,22.2],[57.8,19],[53.1,16.7],[45.1,12.7],[43.3,12.7],[42.7,15],[38.9,21.5],[35,28],[32.6,29.9],[34.2,31.3],[35.9,35.9],[36.2,36.6],[30.5,36.3],[27.3,36.7],[26.3,38.4],[26.7,40.4],[24.9,40.9],[22.6,40],[23,38],[23.2,36.4],[21.3,37.6],[19.4,40.3],[18.5,42.5],[13.6,45.6],[12.5,44.2],[15.7,41.9],[18.4,40.3],[16.6,38.9],[15.6,38],[16,40],[13.7,41.2],[12.2,41.7],[10.5,42.9],[8.9,44.4],[6.5,43.1],[3,43.2],[3.2,41.9],[0.2,39.6],[-0.7,37.6],[-2.1,36.7],[-5.4,36.1],[-7,37.2],[-9.3,38.7]]]}},{"type":"Feature","properties":{"name":"Britain & Ireland"},"geometry":{"type":"MultiPolygon","coordinates":[[[[-5.7,50.1],[-1.3,50.8],[1.4,51.4],[1.7,52.7],[-0.2,54.1],[-1.6,55.6],[-2.1,57.7],[-5,58.6],[-5.8,56.5],[-4.8,54.9],[-3.1,54.2],[-4.7,53.4],[-5.3,51.7],[-3,51.2],[-4.5,50.4],[-5.7,50.1]]],[[[-6.2,54.5],[-6,52.3],[-8.5,51.5],[-10.3,51.8],[-9.9,53.5],[-8.5,55.2],[-6.2,54.5]]]]}},{"type":"Feature","properties":{"name":"Japan"},"geometry":{"type":"Polygon","coordinates":[[[141.9,45.5],[145.3,44.3],[143.3,42],[140.9,41.6],[141.5,38.4],[140.9,35.7],[138.9,34.7],[137,34.7],[135.1,33.6],[132.9,32.8],[131.4,31.4],[130.2,32.8],[129.6,33.4],[132.4,35.5],[136.7,37.3],[139.9,40.1],[140.3,43.2],[141.9,45.5]]]}},{"type":"Feature","properties":{"name":"North America"},"geometry":{"type":"Polygon","coordinates":[[[-166.5,68.9],[-161,70.3],[-156.5,71.3],[-145,70.1],[-135,69.4],[-125,69.9],[-115,68.5],[-107,68],[-96,68.2],[-90,68.5],[-85.5,66.5],[-87,63.5],[-94.2,58.7],[-92.5,55.9],[-85,55.3],[-82.2,52.9],[-79.5,51.3],[-78.5,55.5],[-77.5,60.5],[-71.5,61.5],[-64.5,60.3],[-58.5,54.5],[-55.7,51.5],[-60,46.9],[-66,44.7],[-70.2,42],[-74,40.5],[-75.5,35.3],[-81,31.9],[-80.1,25.8],[-81.8,24.6],[-82.7,27.9],[-84.4,30],[-89.1,30.2],[-94,29.7],[-97.2,26],[-97.8,22.3],[-95.9,18.9],[-91.5,18.7],[-90.4,21.3],[-87,21.5],[-88.3,18.5],[-88.2,15.7],[-83.2,15],[-83.6,10.9],[-79.5,9.6],[-77.2,8.6],[-78.2,8.4],[-80,7.5],[-85.7,10],[-87.9,13.1],[-91.5,14],[-95.2,16.2],[-105,19.5],[-106.5,23.2],[-109.5,25.8],[-112,29],[-114.6,31.7],[-112.8,28.3],[-109.8,22.9],[-115,27.8],[-117.1,32.5],[-120.6,34.6],[-122.4,37.8],[-124.2,40.4],[-124.7,48.4],[-128,51.5],[-133,55],[-139.5,59.5],[-146.5,61],[-151.5,59.2],[-156.5,57],[-163.5,54.8],[-160,58.5],[-165.5,61.5],[-161,64.5],[-168.1,65.6],[-166.5,68.9]]]}},{"type":"Feature","properties":{"name":"South America"},"geometry":{"type":"Polygon","coordinates":[[[-77.2,8.6],[-75.3,10.8],[-71.5,12.4],[-68,10.6],[-63,10.7],[-60,8.5],[-55,6],[-51.5,4.3],[-49.9,0.1],[-44.3,-2.6],[-39,-4.6],[-34.8,-7],[-37,-11],[-38.9,-13],[-39.8,-17.8],[-40.9,-21.9],[-43.2,-23],[-46.4,-24],[-48.6,-26],[-51.5,-31],[-53.5,-34],[-56,-34.9],[-58.4,-34.6],[-57.1,-36.3],[-62,-38.9],[-65.1,-40.8],[-63.6,-42.5],[-65.3,-45],[-67.5,-46],[-65.9,-47.1],[-68.4,-50.1],[-69.2,-52.2],[-68.4,-54.9],[-72,-53.7],[-73.5,-50],[-73.7,-46.5],[-73,-42],[-73.2,-39.5],[-71.6,-33],[-70.4,-23.6],[-70.3,-18.4],[-75.9,-14.7],[-77.2,-12.1],[-79.7,-7.1],[-81.3,-5.9],[-80.9,-1],[-77.9,1.5],[-77.4,4],[-78.6,7.2],[-77.2,8.6]]]}},{"type":"Feature","properties":{"name":"Greenland"},"geometry":{"type":"Polygon","coordinates":[[[-45,59.9],[-49.5,62.5],[-52,66],[-54,70.5],[-56.5,74.5],[-61,76.2],[-68,78.5],[-58.5,81.5],[-44,83.2],[-30,82],[-21,79.5],[-18,76.5],[-22,70.5],[-25.5,68.5],[-32.5,67.5],[-38,65.5],[-42,62],[-45,59.9]]]}},{"type":"Feature","properties":{"name":"Madagascar"},"geometry":{"type":"Polygon","coordinates":[[[49.3,-12.1],[50.2,-15.5],[49.8,-17],[47.2,-24.8],[45.2,-25.6],[43.3,-22.3],[44,-19.9],[44.5,-16.2],[46.3,-13.8],[49.3,-12.1]]]}},{"type":"Feature","properties":{"name":"Iceland"},"geometry":{"type":"Polygon","coordinates":[[[-24.5,65.5],[-21.5,66.4],[-16.5,66.5],[-13.6,65.5],[-15,64.3],[-18.7,63.4],[-22.7,63.8],[-24.5,65.5]]]}},{"type":"Feature","properties":{"name":"Sri Lanka"},"geometry":{"type":"Polygon","coordinates":[[[79.9,9.8],[81.9,8.6],[81.7,6.5],[80.6,5.9],[79.7,8.1],[79.9,9.8]]]}}]}
